C/2020 M3 (ATLAS),e,23.4725,71.2061,328.4920,26.98352,0.0070316,0.95301118,4.3052,06/30.0/2022,2000,g 14.5,4.0
# From MPEC 2022-M88
A/2020 M4,h,11/24.2069/2020,160.1279,348.6209,104.6558,1.000560,5.952558,2000,14.5,2.0
# From MPEC 2022-M88
C/2020 M5 (ATLAS),h,08/19.8715/2021,93.2254,352.0938,126.3307,1.000352,3.004075,2000,9.0,4.0
# From MPEC 2022-GA9
C/2020 N1 (PANSTARRS),h,03/12.2275/2021,29.7083,279.9613,186.7561,1.000438,1.319862,2000,12.5,4.0
# From MPEC 2021-P47
C/2020 N2 (ATLAS),e,161.0353,257.1159,331.2925,103.6406,0.0009341,0.98268679,0.0000,08/23.8430/2020,2000,g 16.0,3.2
# From MPEC 2020-SI8
P/2020 O1 (Lemmon-PANSTARRS),e,5.2259,175.9733,104.5323,2.645010,0.2291200,0.11919687,180.6832,06/30.0/2022,2000,g 15.5,4.0
# From MPEC 2022-M88
C/2020 O2 (Amaral),h,08/28.6625/2021,71.7538,256.7601,10.3164,1.002209,4.862442,2000,8.0,3.2
# From MPEC 2020-SI8
P/2020 O3 (PANSTARRS),e,8.4429,266.8219,81.5793,4.649397,0.0983126,0.10365248,50.7236,06/30.0/2022,2000,g 12.0,4.0
# From MPEC 2021-BE3
C/2020 P1 (NEOWISE),h,10/20.2473/2020,45.1166,53.5059,8.8866,1.000277,0.341476,2000,14.0,3.2
# From MPEC 2022-M21
C/2020 P3 (ATLAS),h,04/20.9378/2021,61.8876,19.4690,82.2552,1.000242,6.812328,2000,6.0,4.0
# From MPEC 2022-L66
C/2020 PV6 (PANSTARRS),e,128.2385,329.1456,71.3922,41.93395,0.0036296,0.94525434,1.0052,06/30.0/2022,2000,g 10.0,4.0
# From MPEC 2022-L66
C/2020 Q1 (Borisov),e,142.9238,52.4107,9.9284,60.64812,0.0020868,0.97830480,0.0000,08/14.5229/2020,2000,g 14.0,4.0
# From MPEC 2022-C56
C/2020 R2 (PANSTARRS),e,53.2283,195.0933,211.7540,405.3027,0.0001208,0.98842357,0.0000,02/24.6318/2022,2000,g  9.0,4.0
# From MPEC 2022-K19
C/2020 R4 (ATLAS),e,164.4614,323.2744,46.7202,99.41085,0.0009944,0.98965450,0.0000,03/02.0057/2021,2000,g 13.5,4.0
# From MPEC 2020-W26
P/2020 R5 (PANSTARRS),e,11.4498,272.9770,82.5000,4.984452,0.0885682,0.31472429,67.4748,06/30.0/2022,2000,g  9.5,6.0
# From MPEC 2021-Y10
C/2020 R6 (Rankin),e,82.8106,12.1774,271.9976,339.8599,0.0001573,0.99078451,0.0000,09/09.2806/2019,2000,g 11.0,4.0
# From MPEC 2022-M88
C/2020 R7 (ATLAS),h,09/16.2295/2022,114.8905,268.2820,347.8362,1.000083,2.955917,2000,7.0,3.2
# From MPEC 2021-BE3
P/2020 S1 (PANSTARRS),e,13.7326,129.4624,254.9521,5.987862,0.0672661,0.50763133,35.5647,06/30.0/2022,2000,g 14.0,4.0
# From MPEC 2021-BE3
C/2020 S2 (PANSTARRS),e,22.4019,197.6667,202.3072,10.20600,0.0302288,0.82792780,16.7754,06/30.0/2022,2000,g 17.0,4.0
# From MPEC 2022-C56
C/2020 S3 (Erasmus),e,19.9803,222.6757,350.0554,166.4090,0.0004591,0.99761849,0.0000,12/12.5395/2020,2000,g 13.5,3.2
# From MPEC 2022-H04
C/2020 S4 (PANSTARRS),h,02/09.2820/2023,20.5722,117.7225,20.9984,1.000722,3.369634,2000,8.5,3.2
# From MPEC 2021-BE3
P/2020 S5 (PANSTARRS),e,12.3520,316.0026,53.1372,4.052354,0.1208212,0.33862511,83.3812,06/30.0/2022,2000,g 14.5,4.0
# From MPEC 2021-P47
P/2020 S6 (Leonard),e,15.4612,242.5441,176.6726,3.600047,0.1442918,0.47943049,84.1617,06/30.0/2022,2000,g 16.0,4.0
# From MPEC 2021-BE3
P/2020 S7 (PANSTARRS),e,16.0914,328.0216,40.5063,5.027402,0.0874357,0.41074365,51.4550,06/30.0/2022,2000,g 14.5,4.0
# From MPEC 2021-P47
C/2020 S8 (Lemmon),e,108.5265,24.0614,160.3201,273.1291,0.0002183,0.99134731,0.0000,04/10.9010/2021,2000,g 12.5,4.0
# From MPEC 2022-M21
C/2020 T2 (Palomar),e,27.8621,83.0197,150.4534,325.3680,0.0001679,0.99368181,0.0000,07/11.2125/2021,2000,g 11.0,3.2
# From MPEC 2021-N06
P/2020 T3 (PANSTARRS),e,7.2965,74.0007,357.0338,3.517209,0.1494193,0.59180853,78.5142,06/30.0/2022,2000,g 18.0,3.2
# From MPEC 2021-N06
C/2020 T4 (PANSTARRS),h,07/05.2620/2021,83.8227,50.6145,79.6103,1.000083,2.191878,2000,13.0,3.2
# From MPEC 2021-BE3
C/2020 T5 (Lemmon),e,66.5796,237.8549,90.3148,809.4595,0.0000428,0.99766527,0.0000,10/09.5649/2020,2000,g 16.0,4.0
# From MPEC 2021-N06
P/2020 U2 (PANSTARRS),e,6.4209,342.8982,84.6326,3.777990,0.1342186,0.51085338,73.9833,06/30.0/2022,2000,g 18.0,4.0
# From MPEC 2021-W31
C/2020 U3 (Rankin),e,30.1679,282.6701,124.2891,65.86882,0.0018437,0.96544208,0.9383,06/30.0/2022,2000,g 15.0,4.0
# From MPEC 2022-K19
C/2020 U4 (PANSTARRS),h,04/08.0915/2022,167.0359,120.0142,69.5464,1.001310,5.353726,2000,7.0,4.0
# From MPEC 2022-M21
C/2020 U5 (PANSTARRS),e,97.2699,107.3344,75.4204,4647,0.0000031,0.99919173,0.0000,04/27.9065/2022,2000,g  8.0,4.0
# From MPEC 2022-M88
C/2020 V2 (ZTF),h,05/08.5264/2023,131.6109,212.3690,162.4145,1.001049,2.228096,2000,4.9,4.0
# From MPEC 2021-N06
P/2020 V3 (PANSTARRS),e,23.0320,198.2556,249.3486,8.375604,0.0406612,0.25615963,20.5799,06/30.0/2022,2000,g  8.3,4.0
# From MPEC 2022-K19
P/2020 V4 (Rankin),e,14.2433,203.4892,256.9957,9.356145,0.0344396,0.44972966,11.9578,06/30.0/2022,2000,g  9.0,4.0
# From MPEC 2021-BE3
P/2020 W1 (Rankin),e,10.7903,124.2665,264.9770,7.207791,0.0509332,0.26610526,41.4749,06/30.0/2022,2000,g 10.0,4.0
# From MPEC 2021-BE3
C/2020 W5 (Lemmon),h,11/30.0553/2020,88.5853,75.4916,24.4806,1.000660,3.364402,2000,15.0,4.0
# From MPEC 2022-L66
P/2020 WJ5 (Lemmon),e,22.2945,177.8108,338.3061,6.016893,0.0667799,0.17124741,24.2282,06/30.0/2022,2000,g  8.5,4.0
# From MPEC 2021-P47
P/2020 X1 (ATLAS),e,31.6930,56.0083,323.3344,4.528426,0.1022782,0.36555926,72.5549,06/30.0/2022,2000,g 13.0,4.0
# From MPEC 2021-U31
C/2020 X2 (ATLAS),e,18.1871,105.4453,347.3409,16.42232,0.0148099,0.76692899,8.7550,06/30.0/2022,2000,g 10.6,4.0
# From MPEC 2021-S45
C/2020 X4 (Leonard),e,80.6142,161.8852,140.3031,41.23832,0.0037218,0.87341706,2.1979,06/30.0/2022,2000,g  9.0,4.0
# From MPEC 2022-M88
C/2020 Y2 (ATLAS),e,101.2978,26.5146,266.1034,1087,0.0000275,0.99711836,0.0000,06/17.6899/2022,2000,g  6.5,4.0
# From MPEC 2021-R75
C/2020 Y3 (ATLAS),e,83.1012,191.4400,342.0052,146.3729,0.0005566,0.98634790,0.0000,12/03.4031/2020,2000,g 13.5,4.0
# From MPEC 2022-H04
C/2021 A1 (Leonard),e,132.6867,255.8967,225.0921,25547,0.0000002,0.99997592,0.0000,01/03.2941/2022,2000,g  8.5,4.0
# From MPEC 2022-F14
C/2021 A2 (NEOWISE),e,106.9783,125.2282,338.8135,242.7423,0.0002606,0.99418147,0.0000,01/22.5636/2021,2000,g 13.5,4.0
# From MPEC 2022-ED3
C/2021 A4 (NEOWISE),e,111.5365,307.1111,204.7052,42.75459,0.0035256,0.97318035,0.0000,03/19.9416/2021,2000,g 16.0,4.0
# From MPEC 2021-BE3
P/2021 A5 (PANSTARRS),e,18.1870,328.7681,61.2389,3.047317,0.1852796,0.13986589,110.2179,06/30.0/2022,2000,g 15.0,4.0
# From MPEC 2022-K19
C/2021 A6 (PANSTARRS),e,75.6122,164.0794,351.6765,10214,0.0000010,0.99922380,0.0000,05/03.8848/2021,2000,g  7.0,4.0
# From MPEC 2022-M88
C/2021 A7 (NEOWISE),e,78.1498,154.5174,356.0398,3767,0.0000043,0.99947781,0.0000,07/15.2720/2021,2000,g 10.0,4.0
# From MPEC 2022-K19
C/2021 A9 (PANSTARRS),h,12/01.3468/2023,158.0243,314.8433,211.4525,1.003423,7.760199,2000,6.0,4.0
# From MPEC 2021-N06
C/2021 A10 (NEOWISE),e,151.8987,188.6456,82.4293,92.82283,0.0011021,0.98637763,0.0000,03/15.3770/2021,2000,g 19.0,4.0
# From MPEC 2022-L66
C/2021 B2 (PANSTARRS),e,38.0893,120.5486,334.9637,350.8752,0.0001500,0.99283918,0.0000,05/04.2716/2021,2000,g 14.0,4.0
# From MPEC 2021-N06
C/2021 B3 (NEOWISE),e,119.4815,67.2855,293.5504,34.76110,0.0048091,0.93785379,2.2899,06/30.0/2022,2000,g 13.5,4.0
# From MPEC 2022-ED3
C/2021 C1 (Rankin),e,143.0453,186.8989,336.2886,88050,0.0000000,0.99996047,0.0000,12/07.0802/2020,2000,g 11.5,4.0
# From MPEC 2021-U31
P/2021 C2 (PANSTARRS),e,21.9300,66.4729,78.7609,9.534645,0.0334771,0.48721578,16.4411,06/30.0/2022,2000,g 12.0,4.0
# From MPEC 2021-N06
C/2021 C3 (Catalina),e,122.1643,181.9280,357.1192,62.77042,0.0019819,0.96374774,0.9962,06/30.0/2022,2000,g 14.0,4.0
# From MPEC 2022-M88
C/2021 C4 (ATLAS),e,132.8523,194.2768,320.2291,53296,0.0000001,0.99991549,0.0000,01/17.1191/2021,2000,g  9.0,4.0
# From MPEC 2022-M21
C/2021 C5 (PANSTARRS),e,50.7835,323.6888,270.9196,3435,0.0000049,0.99905627,0.0000,02/11.0689/2023,2000,g  9.0,4.0
# From MPEC 2022-F14
C/2021 C6 (Lemmon),h,11/13.2773/2021,164.6258,332.1555,203.5533,1.001404,3.271129,2000,12.0,4.0
# From MPEC 2022-F14
C/2021 D1 (SWAN),e,31.4516,311.2649,72.2414,98.69482,0.0010052,0.99086246,0.0000,02/27.6678/2021,2000,g 13.0,4.0
# From MPEC 2022-K19
C/2021 D2 (ZTF),h,02/03.9825/2022,83.8285,305.6802,125.0290,1.001621,2.946295,2000,9.0,4.0
# From MPEC 2021-N06
A/2021 E2,e,167.4883,190.8222,342.4409,233.8916,0.0002755,0.99022199,0.0000,12/10.4648/2020,2000,g 15.0,2.0
# From MPEC 2022-M88
C/2021 E3 (ZTF),h,06/11.9110/2022,112.5548,104.4686,228.8502,1.000892,1.777381,2000,8.5,4.0
# From MPEC 2022-M88
A/2021 E4,e,116.3617,171.1743,48.2730,664.1648,0.0000576,0.99295961,0.0000,04/25.2890/2022,2000,g 13.5,2.0
# From MPEC 2022-L66
C/2021 F1 (Lemmon-PANSTARRS),e,107.3254,203.4519,146.8215,236.9073,0.0002703,0.99579809,0.0000,04/06.8725/2022,2000,g 13.5,4.0
# From MPEC 2021-J72
C/2021 G1 (Leonard),e,131.5588,270.6994,107.4698,74.93236,0.0015195,0.95431366,0.5210,06/30.0/2022,2000,g 14.0,4.0
# From MPEC 2022-L66
C/2021 G2 (ATLAS),e,48.4725,221.1097,343.3625,3938,0.0000040,0.99873560,0.0000,09/09.9955/2024,2000,g  5.5,4.0
# From MPEC 2022-M21
C/2021 G3 (PANSTARRS),h,10/18.4470/2021,102.8817,147.4170,10.6296,1.000873,5.180902,2000,10.5,4.0
# From MPEC 2021-Y10
P/2021 HS (PANSTARRS),e,12.1694,262.3904,46.0924,4.194462,0.1147333,0.81006612,37.5905,06/30.0/2022,2000,g 22.0,4.0
# From MPEC 2022-C56
C/2021 J1 (Maury-Attard),e,92.7203,88.3306,147.3340,26.43310,0.0072524,0.93413574,3.5940,06/30.0/2022,2000,g 15.5,4.0
# From MPEC 2022-M88
C/2021 J2 (PANSTARRS),e,156.2112,23.3313,172.0543,117.9249,0.0007697,0.96008996,0.2159,06/30.0/2022,2000,g 12.0,4.0
# From MPEC 2021-S45
P/2021 J3 (ATLAS),e,14.5419,111.1872,126.0418,8.941861,0.0368606,0.44991721,40.2082,06/30.0/2022,2000,g  7.0,4.0
# From MPEC 2022-ED3
C/2021 K1 (ATLAS),e,16.2758,140.9020,184.2801,12.69275,0.0217957,0.80321648,9.1884,06/30.0/2022,2000,g 11.0,4.0
# From MPEC 2022-GA9
C/2021 K2 (MASTER),h,09/09.4071/2021,100.8459,282.2457,343.3514,1.001090,5.467453,2000,8.0,4.0
# From MPEC 2022-L66
C/2021 K3 (Catalina),h,02/02.9416/2022,134.7743,114.4520,182.0254,1.002868,5.229637,2000,10.0,4.0
# From MPEC 2021-W31
